BEIJING 1               
1 28890U 05043A   22314.23442505  .00000515  00000+0  11310-3 0  9995
2 28890  98.1360  74.1039 0016475  79.3608 280.9465 14.61538601908439
HJ-1A                   
1 33320U 08041A   22314.18879955  .00001313  00000+0  18805-3 0  9990
2 33320  97.6641 340.3308 0022545 116.8240 243.5270 14.77983290763916
HJ-1B                   
1 33321U 08041B   22314.20780340  .00001883  00000+0  26506-3 0  9992
2 33321  97.6807 344.2066 0035433 134.7539 225.6560 14.78013915763917
YAOGAN 4                
1 33446U 08061A   22313.58077233  .00001192  00000+0  17352-3 0  9994
2 33446  97.8298 249.3776 0016949  28.9923 331.2226 14.77566897751029
DEIMOS-1                
1 35681U 09041A   22314.19495030  .00000661  00000+0  11219-3 0  9999
2 35681  97.6949 157.6826 0002882 105.2017 254.9478 14.72168084713214
UK-DMC 2                
1 35683U 09041C   22314.14597956  .00000722  00000+0  12346-3 0  9996
2 35683  97.7074 119.4537 0001654 111.0191 249.1173 14.71584437712934
RISAT 1                 
1 38248U 12017A   22314.09060840  .00005061  00000+0  29064-3 0  9990
2 38248  97.5506 323.9286 0005704 108.9082 251.2767 15.12953016580855
DMC3-FM1                
1 40715U 15032A   22314.15168248  .00000750  00000+0  10035-3 0  9998
2 40715  97.8246 197.9458 0007024  54.7408 305.4457 14.82270755394879
DMC3-FM2                
1 40716U 15032B   22314.17492312  .00001470  00000+0  19046-3 0  9994
2 40716  97.8291 198.6867 0008975  55.0745 305.1326 14.82266033394883
DMC3-FM3                
1 40717U 15032C   22314.12774090 -.00007723  00000+0 -96184-3 0  9993
2 40717  97.8323 199.6163 0010541  51.6819 308.5407 14.82240493394874
